CCSDS_OMM_VERS = 2.0
CREATION_DATE  = 
ORIGINATOR     = 

OBJECT_NAME    = STARLINK-34672
OBJECT_ID      = 2025-224N
CENTER_NAME    = EARTH
REF_FRAME      = TEME
TIME_SYSTEM    = UTC
MEAN_ELEMENT_THEORY = SGP/SGP4

EPOCH          = 2025-11-04T01:43:32.877984
MEAN_MOTION    = 15.49351373
ECCENTRICITY   = .00013288
INCLINATION    = 53.1616
RA_OF_ASC_NODE = 236.1006
ARG_OF_PERICENTER = 80.9284
MEAN_ANOMALY   = 279.1875

EPHEMERIS_TYPE = 0
CLASSIFICATION_TYPE = U
NORAD_CAT_ID   = 65894
ELEMENT_SET_NO = 999
REV_AT_EPOCH   = 562
BSTAR          = .16571793E-2
MEAN_MOTION_DOT = .9296E-3
MEAN_MOTION_DDOT = 0

CCSDS_OMM_VERS = 2.0
CREATION_DATE  = 
ORIGINATOR     = 

OBJECT_NAME    = STARLINK-34898
OBJECT_ID      = 2025-224P
CENTER_NAME    = EARTH
REF_FRAME      = TEME
TIME_SYSTEM    = UTC
MEAN_ELEMENT_THEORY = SGP/SGP4

EPOCH          = 2025-11-04T01:41:34.138464
MEAN_MOTION    = 15.49345402
ECCENTRICITY   = .00012916
INCLINATION    = 53.1621
RA_OF_ASC_NODE = 236.0898
ARG_OF_PERICENTER = 78.8453
MEAN_ANOMALY   = 281.2701

EPHEMERIS_TYPE = 0
CLASSIFICATION_TYPE = U
NORAD_CAT_ID   = 65895
ELEMENT_SET_NO = 999
REV_AT_EPOCH   = 562
BSTAR          = .1463537E-2
MEAN_MOTION_DOT = .81911E-3
MEAN_MOTION_DDOT = 0

CCSDS_OMM_VERS = 2.0
CREATION_DATE  = 
ORIGINATOR     = 

OBJECT_NAME    = STARLINK-34906
OBJECT_ID      = 2025-224Q
CENTER_NAME    = EARTH
REF_FRAME      = TEME
TIME_SYSTEM    = UTC
MEAN_ELEMENT_THEORY = SGP/SGP4

EPOCH          = 2025-11-04T14:00:03.000384
MEAN_MOTION    = 15.49238814
ECCENTRICITY   = .00011702
INCLINATION    = 53.1607
RA_OF_ASC_NODE = 233.6410
ARG_OF_PERICENTER = 104.2830
MEAN_ANOMALY   = 235.8951

EPHEMERIS_TYPE = 0
CLASSIFICATION_TYPE = U
NORAD_CAT_ID   = 65896
ELEMENT_SET_NO = 999
REV_AT_EPOCH   = 577
BSTAR          = .19403053E-2
MEAN_MOTION_DOT = .108707E-2
MEAN_MOTION_DDOT = 0

CCSDS_OMM_VERS = 2.0
CREATION_DATE  = 
ORIGINATOR     = 

OBJECT_NAME    = STARLINK-34934
OBJECT_ID      = 2025-224R
CENTER_NAME    = EARTH
REF_FRAME      = TEME
TIME_SYSTEM    = UTC
MEAN_ELEMENT_THEORY = SGP/SGP4

EPOCH          = 2025-11-04T12:30:49.538880
MEAN_MOTION    = 15.49338158
ECCENTRICITY   = .00013013
INCLINATION    = 53.1608
RA_OF_ASC_NODE = 233.9269
ARG_OF_PERICENTER = 79.5822
MEAN_ANOMALY   = 280.5334

EPHEMERIS_TYPE = 0
CLASSIFICATION_TYPE = U
NORAD_CAT_ID   = 65897
ELEMENT_SET_NO = 999
REV_AT_EPOCH   = 564
BSTAR          = .15280845E-2
MEAN_MOTION_DOT = .85561E-3
MEAN_MOTION_DDOT = 0

CCSDS_OMM_VERS = 2.0
CREATION_DATE  = 
ORIGINATOR     = 

OBJECT_NAME    = STARLINK-34936
OBJECT_ID      = 2025-224S
CENTER_NAME    = EARTH
REF_FRAME      = TEME
TIME_SYSTEM    = UTC
MEAN_ELEMENT_THEORY = SGP/SGP4

EPOCH          = 2025-11-04T12:31:19.270848
MEAN_MOTION    = 15.49319227
ECCENTRICITY   = .00014905
INCLINATION    = 53.1589
RA_OF_ASC_NODE = 233.9306
ARG_OF_PERICENTER = 86.7871
MEAN_ANOMALY   = 273.3309

EPHEMERIS_TYPE = 0
CLASSIFICATION_TYPE = U
NORAD_CAT_ID   = 65898
ELEMENT_SET_NO = 999
REV_AT_EPOCH   = 569
BSTAR          = .12226456E-2
MEAN_MOTION_DOT = .68171E-3
MEAN_MOTION_DDOT = 0

CCSDS_OMM_VERS = 2.0
CREATION_DATE  = 
ORIGINATOR     = 

OBJECT_NAME    = STARLINK-35272
OBJECT_ID      = 2025-224T
CENTER_NAME    = EARTH
REF_FRAME      = TEME
TIME_SYSTEM    = UTC
MEAN_ELEMENT_THEORY = SGP/SGP4

EPOCH          = 2025-11-04T01:40:05.197440
MEAN_MOTION    = 15.49333233
ECCENTRICITY   = .00009946
INCLINATION    = 53.1624
RA_OF_ASC_NODE = 236.0815
ARG_OF_PERICENTER = 85.4728
MEAN_ANOMALY   = 274.6395

EPHEMERIS_TYPE = 0
CLASSIFICATION_TYPE = U
NORAD_CAT_ID   = 65899
ELEMENT_SET_NO = 999
REV_AT_EPOCH   = 561
BSTAR          = .14148777E-2
MEAN_MOTION_DOT = .79109E-3
MEAN_MOTION_DDOT = 0

CCSDS_OMM_VERS = 2.0
CREATION_DATE  = 
ORIGINATOR     = 

OBJECT_NAME    = STARLINK-35264
OBJECT_ID      = 2025-224U
CENTER_NAME    = EARTH
REF_FRAME      = TEME
TIME_SYSTEM    = UTC
MEAN_ELEMENT_THEORY = SGP/SGP4

EPOCH          = 2025-11-04T12:29:50.219232
MEAN_MOTION    = 15.49334926
ECCENTRICITY   = .00014331
INCLINATION    = 53.1613
RA_OF_ASC_NODE = 233.9207
ARG_OF_PERICENTER = 85.2642
MEAN_ANOMALY   = 274.8531

EPHEMERIS_TYPE = 0
CLASSIFICATION_TYPE = U
NORAD_CAT_ID   = 65900
ELEMENT_SET_NO = 999
REV_AT_EPOCH   = 568
BSTAR          = .14282653E-2
MEAN_MOTION_DOT = .79875E-3
MEAN_MOTION_DDOT = 0

CCSDS_OMM_VERS = 2.0
CREATION_DATE  = 
ORIGINATOR     = 

OBJECT_NAME    = STARLINK-35249
OBJECT_ID      = 2025-224V
CENTER_NAME    = EARTH
REF_FRAME      = TEME
TIME_SYSTEM    = UTC
MEAN_ELEMENT_THEORY = SGP/SGP4

EPOCH          = 2025-11-04T01:39:05.723136
MEAN_MOTION    = 15.49344569
ECCENTRICITY   = .00014505
INCLINATION    = 53.1621
RA_OF_ASC_NODE = 236.0783
ARG_OF_PERICENTER = 81.8023
MEAN_ANOMALY   = 278.3150

EPHEMERIS_TYPE = 0
CLASSIFICATION_TYPE = U
NORAD_CAT_ID   = 65901
ELEMENT_SET_NO = 999
REV_AT_EPOCH   = 560
BSTAR          = .14820711E-2
MEAN_MOTION_DOT = .82963E-3
MEAN_MOTION_DDOT = 0

CCSDS_OMM_VERS = 2.0
CREATION_DATE  = 
ORIGINATOR     = 

OBJECT_NAME    = STARLINK-35278
OBJECT_ID      = 2025-224W
CENTER_NAME    = EARTH
REF_FRAME      = TEME
TIME_SYSTEM    = UTC
MEAN_ELEMENT_THEORY = SGP/SGP4

EPOCH          = 2025-11-04T12:27:51.604128
MEAN_MOTION    = 15.49345031
ECCENTRICITY   = .00017215
INCLINATION    = 53.1613
RA_OF_ASC_NODE = 233.9125
ARG_OF_PERICENTER = 80.0030
MEAN_ANOMALY   = 280.1174

EPHEMERIS_TYPE = 0
CLASSIFICATION_TYPE = U
NORAD_CAT_ID   = 65902
ELEMENT_SET_NO = 999
REV_AT_EPOCH   = 569
BSTAR          = .21946999E-2
MEAN_MOTION_DOT = .123721E-2
MEAN_MOTION_DDOT = 0

CCSDS_OMM_VERS = 2.0
CREATION_DATE  = 
ORIGINATOR     = 

OBJECT_NAME    = STARLINK-35210
OBJECT_ID      = 2025-224X
CENTER_NAME    = EARTH
REF_FRAME      = TEME
TIME_SYSTEM    = UTC
MEAN_ELEMENT_THEORY = SGP/SGP4

EPOCH          = 2025-11-04T12:28:21.298944
MEAN_MOTION    = 15.49335572
ECCENTRICITY   = .0001853
INCLINATION    = 53.1602
RA_OF_ASC_NODE = 233.9143
ARG_OF_PERICENTER = 77.9165
MEAN_ANOMALY   = 282.2052

EPHEMERIS_TYPE = 0
CLASSIFICATION_TYPE = U
NORAD_CAT_ID   = 65903
ELEMENT_SET_NO = 999
REV_AT_EPOCH   = 567
BSTAR          = .17089789E-2
MEAN_MOTION_DOT = .95863E-3
MEAN_MOTION_DDOT = 0

CCSDS_OMM_VERS = 2.0
CREATION_DATE  = 
ORIGINATOR     = 

OBJECT_NAME    = STARLINK-35348
OBJECT_ID      = 2025-224Y
CENTER_NAME    = EARTH
REF_FRAME      = TEME
TIME_SYSTEM    = UTC
MEAN_ELEMENT_THEORY = SGP/SGP4

EPOCH          = 2025-11-04T12:28:50.869344
MEAN_MOTION    = 15.49347017
ECCENTRICITY   = .00013666
INCLINATION    = 53.1602
RA_OF_ASC_NODE = 233.9168
ARG_OF_PERICENTER = 78.6995
MEAN_ANOMALY   = 281.4168

EPHEMERIS_TYPE = 0
CLASSIFICATION_TYPE = U
NORAD_CAT_ID   = 65904
ELEMENT_SET_NO = 999
REV_AT_EPOCH   = 564
BSTAR          = .18418104E-2
MEAN_MOTION_DOT = .103491E-2
MEAN_MOTION_DDOT = 0

CCSDS_OMM_VERS = 2.0
CREATION_DATE  = 
ORIGINATOR     = 

OBJECT_NAME    = STARLINK-35380
OBJECT_ID      = 2025-224Z
CENTER_NAME    = EARTH
REF_FRAME      = TEME
TIME_SYSTEM    = UTC
MEAN_ELEMENT_THEORY = SGP/SGP4

EPOCH          = 2025-11-04T12:27:21.880800
MEAN_MOTION    = 15.49351129
ECCENTRICITY   = .00014797
INCLINATION    = 53.1604
RA_OF_ASC_NODE = 233.9107
ARG_OF_PERICENTER = 75.0411
MEAN_ANOMALY   = 285.0762

EPHEMERIS_TYPE = 0
CLASSIFICATION_TYPE = U
NORAD_CAT_ID   = 65905
ELEMENT_SET_NO = 999
REV_AT_EPOCH   = 564
BSTAR          = .20513665E-2
MEAN_MOTION_DOT = .115513E-2
MEAN_MOTION_DDOT = 0

