STARLINK-34672          
1 65894U 25224N   25308.07190831  .00092960  00000+0  16572-2 0  9992
2 65894  53.1616 236.1006 0001328  80.9284 279.1875 15.49351373  5622
STARLINK-34898          
1 65895U 25224P   25308.07053401  .00081911  00000+0  14635-2 0  9996
2 65895  53.1621 236.0898 0001291  78.8453 281.2701 15.49345402  5628
STARLINK-34906          
1 65896U 25224Q   25308.58336806  .00108707  00000+0  19403-2 0  9997
2 65896  53.1607 233.6410 0001170 104.2830 235.8951 15.49238814  5771
STARLINK-34934          
1 65897U 25224R   25308.52140670  .00085561  00000+0  15281-2 0  9996
2 65897  53.1608 233.9269 0001301  79.5822 280.5334 15.49338158  5649
STARLINK-34936          
1 65898U 25224S   25308.52175082  .00068171  00000+0  12226-2 0  9996
2 65898  53.1589 233.9306 0001490  86.7871 273.3309 15.49319227  5696
STARLINK-35272          
1 65899U 25224T   25308.06950460  .00079109  00000+0  14149-2 0  9996
2 65899  53.1624 236.0815 0000994  85.4728 274.6395 15.49333233  5615
STARLINK-35264          
1 65900U 25224U   25308.52072013  .00079875  00000+0  14283-2 0  9998
2 65900  53.1613 233.9207 0001433  85.2642 274.8531 15.49334926  5680
STARLINK-35249          
1 65901U 25224V   25308.06881624  .00082963  00000+0  14821-2 0  9994
2 65901  53.1621 236.0783 0001450  81.8023 278.3150 15.49344569  5609
STARLINK-35278          
1 65902U 25224W   25308.51934727  .00123721  00000+0  21947-2 0  9993
2 65902  53.1613 233.9125 0001721  80.0030 280.1174 15.49345031  5698
STARLINK-35210          
1 65903U 25224X   25308.51969096  .00095863  00000+0  17090-2 0  9990
2 65903  53.1602 233.9143 0001853  77.9165 282.2052 15.49335572  5672
STARLINK-35348          
1 65904U 25224Y   25308.52003321  .00103491  00000+0  18418-2 0  9994
2 65904  53.1602 233.9168 0001366  78.6995 281.4168 15.49347017  5641
STARLINK-35380          
1 65905U 25224Z   25308.51900325  .00115513  00000+0  20514-2 0  9992
2 65905  53.1604 233.9107 0001479  75.0411 285.0762 15.49351129  5645
